{
    "week": 287,
    "satellites": [
        {
            "Name": "GSAT0226 (GALILEO 31)",
            "Line1": "1 61183U 24167B   24283.86290012  .00000026  00000+0  00000+0 0  9992",
            "Line2": "2 61183  55.4031 238.2075 0032709  98.1040 262.2514  1.71381586   360",
            "SatelliteNumber": "61183",
            "Classification": "U",
            "LaunchYear": "24",
            "LaunchNumber": "167",
            "PieceOfLaunch": "B",
            "EpochYear": "24",
            "EpochDay": 283.86290012,
            "FirstDerivativeMeanMotion": 2.6e-07,
            "SecondDerivativeMeanMotion": "00000+0",
            "BSTAR": "00000+0",
            "SetNumber": "999",
            "Inclination": 55.4031,
            "RAAN": 238.2075,
            "Eccentricity": 0.0032709,
            "ArgumentOfPerigee": 98.104,
            "MeanAnomaly": 262.2514,
            "MeanMotion": 1.71381586,
            "RevolutionNumber": "36"
        }
    ]
}